STARLINK-4501           
1 53553U 22101AC  26068.39405050 -.00000433  00000+0 -91215-5 0  9999
2 53553  53.2178  65.3219 0001349  87.4741 272.6406 15.08839409196924
LEMUR-2-AHMED-ASRAR     
1 60576U 24149DN  26068.73265438  .00013045  00000+0  79773-3 0  9992
2 60576  97.7021 152.9847 0001633  18.5035 341.6253 15.10376432 85541
