[{"OBJECT_NAME":"STARLINK-4501","OBJECT_ID":"2022-101AC","EPOCH":"2026-03-09T09:27:25.963200","MEAN_MOTION":15.08839409,"ECCENTRICITY":0.00013498,"INCLINATION":53.2178,"RA_OF_ASC_NODE":65.3219,"ARG_OF_PERICENTER":87.4741,"MEAN_ANOMALY":272.6406,"EPHEMERIS_TYPE":0,"CLASSIFICATION_TYPE":"U","NORAD_CAT_ID":53553,"ELEMENT_SET_NO":999,"REV_AT_EPOCH":19692,"BSTAR":-9.121516e-6,"MEAN_MOTION_DOT":-4.33e-6,"MEAN_MOTION_DDOT":0},{"OBJECT_NAME":"LEMUR-2-AHMED-ASRAR","OBJECT_ID":"2024-149DN","EPOCH":"2026-03-09T17:35:01.338432","MEAN_MOTION":15.10376432,"ECCENTRICITY":0.00016334,"INCLINATION":97.7021,"RA_OF_ASC_NODE":152.9847,"ARG_OF_PERICENTER":18.5035,"MEAN_ANOMALY":341.6253,"EPHEMERIS_TYPE":0,"CLASSIFICATION_TYPE":"U","NORAD_CAT_ID":60576,"ELEMENT_SET_NO":999,"REV_AT_EPOCH":8554,"BSTAR":0.0007977347,"MEAN_MOTION_DOT":0.00013045,"MEAN_MOTION_DDOT":0}]
